*******************************************************************************
 Revised: September 28, 2017           Jupiter                              599
 
 PHYSICAL DATA (updated 2018-Aug-15):
  Mass x10^24 (kg)      = 1898.13+-.19    Density (g/cm^3)       =   1.326
  Equat. radius (1 bar) = 71492+-4 km     Polar radius (km)      =  66854+-10
  Vol. Mean Radius (km) = 69911+-6        Flattening             =   0.06487
  Geometric Albedo      = 0.52            Rocky core mass (Mc/M) =  0.0261
  Sid. rot. period (III)= 9h 55m 29.71 s  Sid. rot. rate (rad/s) =  0.00017585 
  Mean solar day, hrs   = ~9.9259         
  GM (km^3/s^2)         = 126686534.911   GM 1-sigma (km^3/s^2)  =  +-1.5
  Equ. grav, ge (m/s^2) = 24.79           Pol. grav, gp (m/s^2)  =  28.34
  Vis. magnitude V(1,0) = -9.40
  Vis. mag. (opposition)= -2.70           Obliquity to orbit     =  3.13 deg
  Sidereal orbit period = 11.861982204 y  Sidereal orbit period  = 4332.589 d
  Mean daily motion     = 0.0831294 deg/d Mean orbit speed, km/s = 13.0697
  Atmos. temp. (1 bar)  = 165+-5 K        Escape speed, km/s    =  59.5           
  A_roche(ice)/Rp       =  2.76           Hill's sphere rad. Rp  = 740
                                 Perihelion   Aphelion     Mean
  Solar Constant (W/m^2)         56           46           51
  Maximum Planetary IR (W/m^2)   13.7         13.4         13.6
  Minimum Planetary IR (W/m^2)   13.7         13.4         13.6
*******************************************************************************
 
 
*******************************************************************************
Ephemeris / WWW_USER Fri Nov  9 16:06:12 2018 Pasadena, USA      / Horizons    
*******************************************************************************
Target body name: Jupiter (599)                   {source: jup341}
Center body name: Earth (399)                     {source: DE431mx}
Center-site name: GEOCENTRIC
*******************************************************************************
Start time      : A.D. 2018-May-23 00:00:00.0000 UT      
Stop  time      : A.D. 2018-May-25 00:00:00.0000 UT      
Step-size       : 5 minutes
*******************************************************************************
Target pole/equ : IAU_JUPITER                     {West-longitude positive}
Target radii    : 71492.0 x 71492.0 x 66854.0 km  {Equator, meridian, pole}    
Center geodetic : 0.00000000,0.00000000,0.0000000 {E-lon(deg),Lat(deg),Alt(km)}
Center cylindric: 0.00000000,0.00000000,0.0000000 {E-lon(deg),Dxy(km),Dz(km)}
Center pole/equ : High-precision EOP model        {East-longitude positive}
Center radii    : 6378.1 x 6378.1 x 6356.8 km     {Equator, meridian, pole}    
Target primary  : Sun
Vis. interferer : MOON (R_eq= 1737.400) km        {source: DE431mx}
Rel. light bend : Sun, EARTH                      {source: DE431mx}
Rel. lght bnd GM: 1.3271E+11, 3.9860E+05 km^3/s^2                              
Atmos refraction: NO (AIRLESS)
RA format       : DEG
Time format     : CAL 
EOP file        : eop.181108.p190130                                           
EOP coverage    : DATA-BASED 1962-JAN-20 TO 2018-NOV-08. PREDICTS-> 2019-JAN-29
Units conversion: 1 au= 149597870.700 km, c= 299792.458 km/s, 1 day= 86400.0 s 
Table cut-offs 1: Elevation (-90.0deg=NO ),Airmass (>38.000=NO), Daylight (NO )
Table cut-offs 2: Solar elongation (  0.0,180.0=NO ),Local Hour Angle( 0.0=NO )
Table cut-offs 3: RA/DEC angular rate (     0.0=NO )                           
**************************************************************************************************************************************
 Date__(UT)__HR:MN:SC.fff     R.A._(ICRF/J2K)_DEC Ang-diam Ob-lon Ob-lat Sl-lon Sl-lat   NP.ang   NP.dist            delta      deldot
**************************************************************************************************************************************
$$SOE
 2018-May-24 09:00:00.000     224.09433 -15.49325 44.51586 167.48  -3.77 164.39  -3.56  17.3448    -20.77 4.42866048777683   7.1145266
 2018-May-24 09:05:00.000     224.09393 -15.49315 44.51572 170.51  -3.77 167.41  -3.56  17.3449    -20.77 4.42867475683529   7.1162290
 2018-May-24 09:10:00.000     224.09352 -15.49304 44.51557 173.53  -3.77 170.43  -3.56  17.3450    -20.77 4.42868902930774   7.1179315
 2018-May-24 09:15:00.000     224.09311 -15.49293 44.51543 176.55  -3.77 173.46  -3.56  17.3452    -20.77 4.42870330519435   7.1196340
 2018-May-24 09:20:00.000     224.09270 -15.49282 44.51529 179.57  -3.77 176.48  -3.56  17.3453    -20.77 4.42871758449527   7.1213366
 2018-May-24 09:25:00.000     224.09229 -15.49271 44.51514 182.60  -3.77 179.50  -3.56  17.3454    -20.77 4.42873186721064   7.1230393
 2018-May-24 09:30:00.000     224.09188 -15.49261 44.51500 185.62  -3.77 182.52  -3.56  17.3456    -20.77 4.42874615334063   7.1247420
 2018-May-24 09:35:00.000     224.09148 -15.49250 44.51486 188.64  -3.77 185.55  -3.56  17.3457    -20.77 4.42876044288540   7.1264449
 2018-May-24 09:40:00.000     224.09107 -15.49239 44.51471 191.67  -3.77 188.57  -3.56  17.3458    -20.77 4.42877473584511   7.1281478
 2018-May-24 09:45:00.000     224.09066 -15.49228 44.51457 194.69  -3.77 191.59  -3.56  17.3460    -20.77 4.42878903221992   7.1298508
 2018-May-24 09:50:00.000     224.09025 -15.49217 44.51443 197.71  -3.77 194.61  -3.56  17.3461    -20.77 4.42880333200998   7.1315539
 2018-May-24 09:55:00.000     224.08984 -15.49206 44.51428 200.74  -3.77 197.63  -3.56  17.3462    -20.77 4.42881763521547   7.1332571
 2018-May-24 10:00:00.000     224.08943 -15.49196 44.51414 203.76  -3.77 200.66  -3.56  17.3464    -20.77 4.42883194183655   7.1349603
 2018-May-24 10:05:00.000     224.08903 -15.49185 44.51399 206.78  -3.77 203.68  -3.56  17.3465    -20.77 4.42884625187338   7.1366636
 2018-May-24 10:10:00.000     224.08862 -15.49174 44.51385 209.80  -3.77 206.70  -3.56  17.3466    -20.77 4.42886056532615   7.1383671
 2018-May-24 10:15:00.000     224.08821 -15.49163 44.51371 212.83  -3.77 209.72  -3.56  17.3468    -20.77 4.42887488219499   7.1400706
 2018-May-24 10:20:00.000     224.08780 -15.49152 44.51356 215.85  -3.77 212.75  -3.56  17.3469    -20.77 4.42888920248010   7.1417741
 2018-May-24 10:25:00.000     224.08739 -15.49142 44.51342 218.87  -3.77 215.77  -3.56  17.3470    -20.77 4.42890352618165   7.1434778
 2018-May-24 10:30:00.000     224.08698 -15.49131 44.51327 221.90  -3.77 218.79  -3.56  17.3472    -20.77 4.42891785329979   7.1451816
 2018-May-24 10:35:00.000     224.08658 -15.49120 44.51313 224.92  -3.77 221.81  -3.56  17.3473    -20.77 4.42893218383472   7.1468854
 2018-May-24 10:40:00.000     224.08617 -15.49109 44.51299 227.94  -3.77 224.84  -3.56  17.3474    -20.77 4.42894651778659   7.1485893
 2018-May-24 10:45:00.000     224.08576 -15.49098 44.51284 230.97  -3.77 227.86  -3.56  17.3476    -20.77 4.42896085515558   7.1502933
 2018-May-24 10:50:00.000     224.08535 -15.49088 44.51270 233.99  -3.77 230.88  -3.56  17.3477    -20.77 4.42897519594188   7.1519974
 2018-May-24 10:55:00.000     224.08494 -15.49077 44.51255 237.01  -3.77 233.90  -3.56  17.3478    -20.77 4.42898954014564   7.1537016
 2018-May-24 11:00:00.000     224.08454 -15.49066 44.51241 240.04  -3.77 236.93  -3.56  17.3480    -20.77 4.42900388776707   7.1554059
 2018-May-24 11:05:00.000     224.08413 -15.49055 44.51227 243.06  -3.77 239.95  -3.56  17.3481    -20.77 4.42901823880631   7.1571103
 2018-May-24 11:10:00.000     224.08372 -15.49044 44.51212 246.08  -3.77 242.97  -3.56  17.3482    -20.77 4.42903259326356   7.1588147
 2018-May-24 11:15:00.000     224.08331 -15.49034 44.51198 249.10  -3.77 245.99  -3.56  17.3484    -20.77 4.42904695113901   7.1605193
 2018-May-24 11:20:00.000     224.08290 -15.49023 44.51183 252.13  -3.77 249.01  -3.56  17.3485    -20.77 4.42906131243281   7.1622239
 2018-May-24 11:25:00.000     224.08249 -15.49012 44.51169 255.15  -3.77 252.04  -3.56  17.3486    -20.77 4.42907567714515   7.1639287
 2018-May-24 11:30:00.000     224.08209 -15.49001 44.51154 258.17  -3.77 255.06  -3.56  17.3488    -20.77 4.42909004527623   7.1656335
 2018-May-24 11:35:00.000     224.08168 -15.48990 44.51140 261.20  -3.77 258.08  -3.56  17.3489    -20.77 4.42910441682621   7.1673384
 2018-May-24 11:40:00.000     224.08127 -15.48979 44.51125 264.22  -3.77 261.10  -3.56  17.3490    -20.77 4.42911879179528   7.1690434
 2018-May-24 11:45:00.000     224.08086 -15.48969 44.51111 267.24  -3.77 264.13  -3.56  17.3492    -20.77 4.42913317018361   7.1707485
 2018-May-24 11:50:00.000     224.08045 -15.48958 44.51097 270.27  -3.77 267.15  -3.56  17.3493    -20.77 4.42914755199139   7.1724536
 2018-May-24 11:55:00.000     224.08005 -15.48947 44.51082 273.29  -3.77 270.17  -3.56  17.3494    -20.77 4.42916193721881   7.1741589
 2018-May-24 12:00:00.000     224.07964 -15.48936 44.51068 276.31  -3.77 273.19  -3.56  17.3496    -20.77 4.42917632586604   7.1758643
 2018-May-24 12:05:00.000     224.07923 -15.48925 44.51053 279.33  -3.77 276.22  -3.56  17.3497    -20.77 4.42919071793327   7.1775697
 2018-May-24 12:10:00.000     224.07882 -15.48915 44.51039 282.36  -3.77 279.24  -3.56  17.3498    -20.77 4.42920511342068   7.1792753
 2018-May-24 12:15:00.000     224.07841 -15.48904 44.51024 285.38  -3.77 282.26  -3.56  17.3500    -20.77 4.42921951232846   7.1809809
 2018-May-24 12:20:00.000     224.07801 -15.48893 44.51010 288.40  -3.77 285.28  -3.56  17.3501    -20.77 4.42923391465678   7.1826866
 2018-May-24 12:25:00.000     224.07760 -15.48882 44.50995 291.43  -3.77 288.31  -3.56  17.3502    -20.77 4.42924832040583   7.1843924
 2018-May-24 12:30:00.000     224.07719 -15.48871 44.50981 294.45  -3.77 291.33  -3.56  17.3504    -20.77 4.42926272957580   7.1860983
 2018-May-24 12:35:00.000     224.07678 -15.48861 44.50966 297.47  -3.77 294.35  -3.56  17.3505    -20.77 4.42927714216686   7.1878043
